{
  "type": "FeatureCollection",
  "features": [
    {
      "type": "Feature",
      "properties": {
        "norad_id": 30326,
        "name": "FENGYUN 1C DEB",
        "group": "fengyun-1c-debris",
        "lat": 21.825894005306036,
        "lon": -133.40075828429212,
        "alt_km": 845.9535344340184,
        "timestamp": "2025-12-08T10:52:03.223174+00:00",
        "meta_object_name": "FENGYUN 1C DEB",
        "meta_object_id": "1999-025AAM",
        "meta_epoch": "2025-12-07T22:37:53.428800",
        "meta_mean_motion": 13.85471404,
        "meta_eccentricity": 0.0142513,
        "meta_inclination": 98.6544,
        "meta_ra_of_asc_node": 229.6253,
        "meta_arg_of_pericenter": 43.5714,
        "meta_mean_anomaly": 317.6597,
        "meta_ephemeris_type": 0,
        "meta_classification_type": "U",
        "meta_norad_cat_id": 30326,
        "meta_element_set_no": 999,
        "meta_rev_at_epoch": 95389,
        "meta_bstar": 0.00029113694,
        "meta_mean_motion_dot": 3.2e-06,
        "meta_mean_motion_ddot": 0,
        "tle_line1": "1 30326U 99025AAM 25341.94297950  .00000320  00000+0  29114-3 0  9993",
        "tle_line2": "2 30326  98.6544 229.6253 0142513  43.5714 317.6597 13.85471404953890"
      },
      "geometry": {
        "type": "Point",
        "coordinates": [
          -133.40075828429212,
          21.825894005306036
        ]
      }
    },
    {
      "type": "Feature",
      "properties": {
        "norad_id": 30327,
        "name": "FENGYUN 1C DEB",
        "group": "fengyun-1c-debris",
        "lat": 65.93848045902357,
        "lon": 76.40033123521542,
        "alt_km": 763.8081151871047,
        "timestamp": "2025-12-08T10:52:03.223184+00:00",
        "meta_object_name": "FENGYUN 1C DEB",
        "meta_object_id": "1999-025AAN",
        "meta_epoch": "2025-12-07T04:33:58.413024",
        "meta_mean_motion": 14.17928233,
        "meta_eccentricity": 0.01166449,
        "meta_inclination": 98.4436,
        "meta_ra_of_asc_node": 235.7689,
        "meta_arg_of_pericenter": 159.13,
        "meta_mean_anomaly": 353.1991,
        "meta_ephemeris_type": 0,
        "meta_classification_type": "U",
        "meta_norad_cat_id": 30327,
        "meta_element_set_no": 999,
        "meta_rev_at_epoch": 96364,
        "meta_bstar": 0.0025097225,
        "meta_mean_motion_dot": 5.452e-05,
        "meta_mean_motion_ddot": 0,
        "tle_line1": "1 30327U 99025AAN 25341.19025941  .00005452  00000+0  25097-2 0  9996",
        "tle_line2": "2 30327  98.4436 235.7689 0116644 159.1300 353.1991 14.17928233963641"
      },
      "geometry": {
        "type": "Point",
        "coordinates": [
          76.40033123521542,
          65.93848045902357
        ]
      }
    },
    {
      "type": "Feature",
      "properties": {
        "norad_id": 30328,
        "name": "FENGYUN 1C DEB",
        "group": "fengyun-1c-debris",
        "lat": -6.6970145272554085,
        "lon": -6.26686310848382,
        "alt_km": 858.6116514677242,
        "timestamp": "2025-12-08T10:52:03.223205+00:00",
        "meta_object_name": "FENGYUN 1C DEB",
        "meta_object_id": "1999-025AAP",
        "meta_epoch": "2025-12-07T23:16:33.625632",
        "meta_mean_motion": 14.12469953,
        "meta_eccentricity": 0.00055344,
        "meta_inclination": 98.6865,
        "meta_ra_of_asc_node": 352.2364,
        "meta_arg_of_pericenter": 165.0967,
        "meta_mean_anomaly": 253.7227,
        "meta_ephemeris_type": 0,
        "meta_classification_type": "U",
        "meta_norad_cat_id": 30328,
        "meta_element_set_no": 999,
        "meta_rev_at_epoch": 97197,
        "meta_bstar": 0.00021227408,
        "meta_mean_motion_dot": 3.49e-06,
        "meta_mean_motion_ddot": 0,
        "tle_line1": "1 30328U 99025AAP 25341.96983363  .00000349  00000+0  21227-3 0  9995",
        "tle_line2": "2 30328  98.6865 352.2364 0005534 165.0967 253.7227 14.12469953971971"
      },
      "geometry": {
        "type": "Point",
        "coordinates": [
          -6.26686310848382,
          -6.6970145272554085
        ]
      }
    },
    {
      "type": "Feature",
      "properties": {
        "norad_id": 30329,
        "name": "FENGYUN 1C DEB",
        "group": "fengyun-1c-debris",
        "lat": 78.78052998869295,
        "lon": -153.47717264663964,
        "alt_km": 848.6789872543286,
        "timestamp": "2025-12-08T10:52:03.223248+00:00",
        "meta_object_name": "FENGYUN 1C DEB",
        "meta_object_id": "1999-025AAQ",
        "meta_epoch": "2025-12-06T17:11:44.641824",
        "meta_mean_motion": 13.86731364,
        "meta_eccentricity": 0.01423674,
        "meta_inclination": 99.2615,
        "meta_ra_of_asc_node": 260.1484,
        "meta_arg_of_pericenter": 51.5803,
        "meta_mean_anomaly": 7.6121,
        "meta_ephemeris_type": 0,
        "meta_classification_type": "U",
        "meta_norad_cat_id": 30329,
        "meta_element_set_no": 999,
        "meta_rev_at_epoch": 95327,
        "meta_bstar": 0.00073699035,
        "meta_mean_motion_dot": 8.86e-06,
        "meta_mean_motion_ddot": 0,
        "tle_line1": "1 30329U 99025AAQ 25340.71648891  .00000886  00000+0  73699-3 0  9998",
        "tle_line2": "2 30329  99.2615 260.1484 0142367  51.5803   7.6121 13.86731364953276"
      },
      "geometry": {
        "type": "Point",
        "coordinates": [
          -153.47717264663964,
          78.78052998869295
        ]
      }
    },
    {
      "type": "Feature",
      "properties": {
        "norad_id": 30330,
        "name": "FENGYUN 1C DEB",
        "group": "fengyun-1c-debris",
        "lat": -9.937095137275227,
        "lon": 153.4814318112031,
        "alt_km": 823.963061749937,
        "timestamp": "2025-12-08T10:52:03.223259+00:00",
        "meta_object_name": "FENGYUN 1C DEB",
        "meta_object_id": "1999-025AAR",
        "meta_epoch": "2025-12-07T22:06:47.709792",
        "meta_mean_motion": 13.82038514,
        "meta_eccentricity": 0.01875489,
        "meta_inclination": 98.8857,
        "meta_ra_of_asc_node": 334.5508,
        "meta_arg_of_pericenter": 197.7948,
        "meta_mean_anomaly": 229.7708,
        "meta_ephemeris_type": 0,
        "meta_classification_type": "U",
        "meta_norad_cat_id": 30330,
        "meta_element_set_no": 999,
        "meta_rev_at_epoch": 94591,
        "meta_bstar": 0.0017420494,
        "meta_mean_motion_dot": 2.101e-05,
        "meta_mean_motion_ddot": 0,
        "tle_line1": "1 30330U 99025AAR 25341.92138553  .00002101  00000+0  17420-2 0  9994",
        "tle_line2": "2 30330  98.8857 334.5508 0187548 197.7948 229.7708 13.82038514945910"
      },
      "geometry": {
        "type": "Point",
        "coordinates": [
          153.4814318112031,
          -9.937095137275227
        ]
      }
    },
    {
      "type": "Feature",
      "properties": {
        "norad_id": 30331,
        "name": "FENGYUN 1C DEB",
        "group": "fengyun-1c-debris",
        "lat": 2.891832501406231,
        "lon": -162.40931383620924,
        "alt_km": 968.6172846317495,
        "timestamp": "2025-12-08T10:52:03.223270+00:00",
        "meta_object_name": "FENGYUN 1C DEB",
        "meta_object_id": "1999-025AAS",
        "meta_epoch": "2025-12-07T21:08:14.259840",
        "meta_mean_motion": 13.97822161,
        "meta_eccentricity": 0.00967044,
        "meta_inclination": 98.9574,
        "meta_ra_of_asc_node": 16.5761,
        "meta_arg_of_pericenter": 21.3765,
        "meta_mean_anomaly": 157.8529,
        "meta_ephemeris_type": 0,
        "meta_classification_type": "U",
        "meta_norad_cat_id": 30331,
        "meta_element_set_no": 999,
        "meta_rev_at_epoch": 96051,
        "meta_bstar": 0.00063363362,
        "meta_mean_motion_dot": 8.9e-06,
        "meta_mean_motion_ddot": 0,
        "tle_line1": "1 30331U 99025AAS 25341.88072060  .00000890  00000+0  63363-3 0  9991",
        "tle_line2": "2 30331  98.9574  16.5761 0096704  21.3765 157.8529 13.97822161960518"
      },
      "geometry": {
        "type": "Point",
        "coordinates": [
          -162.40931383620924,
          2.891832501406231
        ]
      }
    },
    {
      "type": "Feature",
      "properties": {
        "norad_id": 30332,
        "name": "FENGYUN 1C DEB",
        "group": "fengyun-1c-debris",
        "lat": 14.199203970458855,
        "lon": 136.36880453150627,
        "alt_km": 893.3179023847497,
        "timestamp": "2025-12-08T10:52:03.223280+00:00",
        "meta_object_name": "FENGYUN 1C DEB",
        "meta_object_id": "1999-025AAT",
        "meta_epoch": "2025-12-07T20:25:10.003872",
        "meta_mean_motion": 13.76703367,
        "meta_eccentricity": 0.01780166,
        "meta_inclination": 99.7143,
        "meta_ra_of_asc_node": 313.2702,
        "meta_arg_of_pericenter": 115.6405,
        "meta_mean_anomaly": 306.2061,
        "meta_ephemeris_type": 0,
        "meta_classification_type": "U",
        "meta_norad_cat_id": 30332,
        "meta_element_set_no": 999,
        "meta_rev_at_epoch": 94648,
        "meta_bstar": 0.00057991647,
        "meta_mean_motion_dot": 5.95e-06,
        "meta_mean_motion_ddot": 0,
        "tle_line1": "1 30332U 99025AAT 25341.85081023  .00000595  00000+0  57992-3 0  9991",
        "tle_line2": "2 30332  99.7143 313.2702 0178016 115.6405 306.2061 13.76703367946481"
      },
      "geometry": {
        "type": "Point",
        "coordinates": [
          136.36880453150627,
          14.199203970458855
        ]
      }
    }
  ]
}